#dP2018 11 12  0  0  0.00000000      96 __u+U IGS08 FIT  IAC
## 2027  86400.00000000   900.00000000 58434 0.0000000000000
+   92   C01C02C03C04C05C06C07C08C09C10C11C12C13C14E01E02E03
+        E04E05E07E08E09E11E12E14E18E19E21E24E25E26E27E30E31
+        G01G02G03G05G06G07G08G09G10G11G12G13G14G15G16G17G18
+        G19G20G21G22G23G24G25G26G27G28G29G30G31G32J01J02J03
+        J07R01R02R03R04R05R07R08R09R10R11R13R14R15R16R17R18
+        R19R20R21R22R23R24R26  0  0  0  0  0  0  0  0  0  0
++        12 12 14 12 12  8  8  8  8  8  0  7  7  7  7  7  7
++         7  7  7  7  7  7  7  7  7  7  7  7  7  7  7  7  6
++         3  3  3  3  3  3  3  3  3  3  3  3  3  3  3  3  3
++         3  3  3  3  3  3  3  3  3  3  3  3  3  3  8 12 12
++        18  5  5  5  5  5  5  5  5  5  5  5  5  5  5  5  5
++         6  5  5  7  5  6  8  0  0  0  0  0  0  0  0  0  0
%c M  cc GPS ccc cccc cccc cccc cccc ccccc ccccc ccccc ccccc
%c cc cc ccc ccc cccc cccc cccc cccc ccccc ccccc ccccc ccccc
%f  1.2500000  1.025000000  0.00000000000  0.000000000000000
%f  0.0000000  0.000000000  0.00000000000  0.000000000000000
%i    0    0    0    0      0      0      0      0         0
%i    0    0    0    0      0      0      0      0         0
/* INFORMATION & ANALYSIS CENTER (IAC)            FINAL DATA
/* S/V CLOCKS ARE ALIGNED TO GPS & GLONASS TIME RESPECTIVELY
/* USING THE BROADCAST EPHEMERIS                            
/* PCV:IGS14_2022 OL/AL:FES2004  NONE     YN ORB:CoN CLK:CoN
*  2018 11 12 20 45  0.00000000
PC01 -32299.272606  27066.816463    816.453291   -121.401390
PC02   4400.786778  41962.877297     86.185057    -94.772888
PC03 -14800.728618  39468.554951    525.163353    -65.769982
PC04 -39584.731584  14464.292733    496.221692    -16.083802
PC05  21850.696993  36058.117438    -88.797569    142.411883
PC06 -19927.215880  20487.942549 -30824.527640     43.066538
PC07 -21042.761126  36202.738548   1829.728268   -139.687764
PC08  -5693.487145  29867.214315  29412.281619     29.897884
PC09   -103.375081  24562.491347 -34062.316491    278.800418
PC10  -9107.900576  37894.297370  15768.523358   -233.101408
PC11      0.000000      0.000000      0.000000 999999.999999
PC12  -7010.702272  13831.257971  23267.188497    207.709961
PC13   5628.527831  38010.541550  17689.817065   -373.891675
PC14    956.094528  16970.079542 -22090.380199    641.148615
PE01  14871.067687   6513.907778  24758.958765   -476.556917
PE02 -14885.818443  -6462.854786 -24747.255311     34.908771
PE03 -26570.352825  -5930.989065  11598.704282    -98.989903
PE04  27923.458201  -7223.138867   6654.255292   -157.336878
PE05  -9649.866182 -15689.998351  23166.054774    160.589504
PE07 -12854.187929  16237.940522 -21144.241762    -74.192752
PE08 -27831.999942   7470.034078  -6738.754371   6464.138915
PE09  12755.824299 -16223.332384  21225.113297   6619.651264
PE11   2496.739056 -20647.883899 -21067.634158   5707.446452
PE12  17353.145483  -3089.574219 -23775.044837   5483.826945
PE14  12428.411825 -16882.383813 -24539.476242   6490.471210
PE18 -14173.176726   9316.183246  16845.849213   5761.105527
PE19  25497.500719   7030.634081 -13289.627320    -10.685676
PE21   1561.109053  23928.126638  17356.969703   -504.178729
PE24  12254.172963 -26932.986523   -403.368417   6392.644482
PE25  -1517.785173 -23954.188058 -17313.424588   1985.234026
PE26  13278.446925  25740.749663   6146.558114   5255.835890
PE27 -12467.637046  26845.284893   -223.346612    591.755705
PE30 -19256.318898  14445.284853 -17229.437331   5355.387013
PE31  19184.374604 -14009.199462  17679.575228    985.410993
PG01 -14421.081336   3593.990475  21840.612456   -113.427547
PG02  14451.455357  18454.638327 -12110.673942    -56.851157
PG03 -21942.141859  11639.742515   9273.437273    159.617564
PG05  15326.049249   6063.100458 -20981.921624     -0.246008
PG06   6373.172309  25771.257880   -420.023389    334.594359
PG07  -7833.390868  18833.532957 -16516.635265     89.657014
PG08 -25923.112483  -5588.879540   2703.039500   -121.956866
PG09 -15247.753950   9939.852899 -19390.865920    493.024225
PG10   6117.902712 -20614.540589  15510.420954    164.988901
PG11 -18539.303301   -422.466491  18397.894156   -700.517739
PG12  22048.922563  -7345.706414  12501.234257    292.622926
PG13  22977.586095  12880.193532  -3629.084993    -84.651926
PG14 -12349.001428 -17183.236020  16460.860878    -95.866311
PG15  26130.563666   1344.344613   5410.006671   -340.005191
PG16 -13345.377085  -7881.382344 -21788.509961     -0.775902
PG17   2405.961705  16048.410394  21452.746677    -32.286818
PG18 -16286.498435  -7081.106399  19318.740866     78.622979
PG19  12592.661240  16768.503771  15934.720071   -384.357689
PG20  12787.463466 -22306.125960   6282.485661    518.608095
PG21   3782.090629 -22054.551450 -13558.948273   -305.457403
PG22 -21007.904827   5244.526652  15589.544361   -572.202957
PG23 -22911.246394   3309.829084 -13079.717262   -206.368796
PG24  16239.234819   1450.780553  20883.073223    -58.068343
PG25  20207.271347 -16886.721163   2028.671498   -675.857918
PG26  -5132.364378 -15638.779912 -20820.888562     37.468918
PG27 -22622.904378 -12081.190168  -7510.738937    -17.207723
PG28  -9463.540865  20173.348612  15130.564460    754.232585
PG29  17156.203009  -7060.151869 -19028.548668    337.504234
PG30   -860.866094  25376.404476  -7470.924639     -3.815067
PG31  -7345.943045 -25070.581866  -3213.022473     80.156625
PG32  -4884.419645 -16410.113178  20368.314533   -359.485332
PJ01 -33906.400084  23981.091242  -2575.438060   -273.211676
PJ02 -20407.227300  31970.090944 -14401.306685      0.763717
PJ03 -28232.908216  23348.474869  26071.656301      0.845773
PJ07 -25357.851653  33691.378571    -26.088943    225.197357
PR01   5631.041466   9842.750904 -22855.054053     34.864872
PR02  22220.571850   -276.749400 -12445.777090    339.209316
PR03  23268.190972  -9202.784385   4869.819915    148.662242
PR04  10280.988399 -12734.010892  19567.507477    283.511812
PR05  -7782.569710  -8812.921154  22641.348988     15.312876
PR07 -23173.616757   9329.388198  -5226.990898    -51.442358
PR08 -11054.537470  12709.741957 -19113.772760     20.503829
PR09 -10785.381220  -2692.742975 -22940.329791     38.344434
PR10 -11962.568624  14442.257415 -17261.466235     35.546919
PR11  -6508.397822  24630.040342   -657.633939    -46.872836
PR13  10363.791384   3290.128698  23063.568938    -16.759643
PR14  12061.325108 -14516.496330  17185.646794     32.930065
PR15   8565.984918 -23361.068047   5391.875528    -19.081619
PR16  -2601.884358 -20467.472327 -14935.309568    106.241120
PR17  13486.107246   -789.374938 -21637.234062    179.796829
PR18   -185.363354 -13772.999411 -21466.468080     27.147426
PR19 -13343.533959 -19547.698845  -9499.125638    -61.472496
PR20 -19415.704473 -13532.493990   9574.979343   -358.848521
PR21 -13071.153032   1213.729063  21865.341549    -14.142834
PR22   2062.343352  14972.584052  20516.668786    -64.700307
PR23  16212.292361  19023.908117   5105.362069    190.306617
PR24  19581.097293  12277.533948 -10812.132115   -173.691665
PR26 -19681.919638 -14087.121132   8015.292325      3.998698
EOF
